[{"OBJECT_NAME":"YAOGAN-28","OBJECT_ID":"2015-064A","EPOCH":"2026-03-09T23:07:10.370208","MEAN_MOTION":15.26008,"ECCENTRICITY":0.00111911,"INCLINATION":97.2901,"RA_OF_ASC_NODE":209.4389,"ARG_OF_PERICENTER":175.4532,"MEAN_ANOMALY":184.6811,"EPHEMERIS_TYPE":0,"CLASSIFICATION_TYPE":"U","NORAD_CAT_ID":41026,"ELEMENT_SET_NO":999,"REV_AT_EPOCH":57554,"BSTAR":0.00039691695,"MEAN_MOTION_DOT":0.00010159,"MEAN_MOTION_DDOT":0},{"OBJECT_NAME":"STARLINK-31722","OBJECT_ID":"2024-074R","EPOCH":"2026-03-09T03:08:23.709408","MEAN_MOTION":15.27564383,"ECCENTRICITY":8.858e-5,"INCLINATION":43.0032,"RA_OF_ASC_NODE":346.2692,"ARG_OF_PERICENTER":267.8976,"MEAN_ANOMALY":92.1774,"EPHEMERIS_TYPE":0,"CLASSIFICATION_TYPE":"U","NORAD_CAT_ID":59549,"ELEMENT_SET_NO":999,"REV_AT_EPOCH":10593,"BSTAR":-0.00010874237,"MEAN_MOTION_DOT":-3.251e-5,"MEAN_MOTION_DDOT":0}]
